STARLINK-5970           
1 56450U 23064C   26194.39012298  .00000104  00000+0  16471-4 0  9998
2 56450  69.9995 187.5628 0003017 269.2650  90.8163 14.98326711174075
STARLINK-5985           
1 56451U 23064D   26194.41083311  .00000809  00000+0  75595-4 0  9990
2 56451  70.0016 187.6344 0002868 286.3120  73.7723 14.98313964174072
STARLINK-5986           
1 56452U 23064E   26194.40664885  .00000091  00000+0  15445-4 0  9992
2 56452  69.9994 187.6205 0003502 267.1209  92.9549 14.98330694174070
STARLINK-5935           
1 56453U 23064F   26194.40247498  .00000005  00000+0  81963-5 0  9994
2 56453  69.9994 187.6046 0003575 263.7494  96.3257 14.98330652174070
STARLINK-5959           
1 56454U 23064G   26194.44838209  .00000171  00000+0  22121-4 0  9999
2 56454  69.9993 187.3639 0003641 271.0515  89.0227 14.98324418174085
STARLINK-5987           
1 56455U 23064H   26194.37744061  .00000251  00000+0  28798-4 0  9999
2 56455  69.9990 187.5171 0003686 265.7030  94.3708 14.98334683174074
STARLINK-5995           
1 56456U 23064J   26194.38996278  .00000212  00000+0  25526-4 0  9993
2 56456  69.9995 187.5613 0003389 265.9907  94.0865 14.98337353174074
STARLINK-5994           
1 56457U 23064K   26194.38578646  .00000263  00000+0  29859-4 0  9998
2 56457  69.9996 187.5457 0003333 268.0451  92.0326 14.98337176174072
STARLINK-6050           
1 56458U 23064L   26194.39412522  .00000451  00000+0  45579-4 0  9996
2 56458  69.9990 187.5746 0004017 258.7400 101.3308 14.98335971174073
STARLINK-6048           
1 56459U 23064M   26194.42765726  .00000001  00000+0  78807-5 0  9990
2 56459  69.9986 187.2915 0003590 264.5955  95.4794 14.98331322174077
STARLINK-6047           
1 56460U 23064N   26194.37325664  .00000304  00000+0  33271-4 0  9990
2 56460  69.9989 187.5026 0003653 262.1758  97.8987 14.98340001174077
STARLINK-6037           
1 56461U 23064P   26194.42333035  .00000548  00000+0  53710-4 0  9998
2 56461  69.9988 187.2755 0003751 276.7333  83.3399 14.98320151174084
STARLINK-6045           
1 56462U 23064Q   26194.84445360 -.00000023  00000+0  58569-5 0  9997
2 56462  69.9998 146.1694 0003437 267.3614  92.7151 14.98326983175137
STARLINK-6051           
1 56463U 23064R   26194.39829656 -.00001309  00000+0 -10192-3 0  9999
2 56463  69.9970 187.5807 0004325 268.9886  91.0778 14.98336998174074
STARLINK-6043           
1 56464U 23064S   26194.36909351  .00000220  00000+0  26253-4 0  9993
2 56464  69.9989 187.4879 0003691 269.7805  90.2931 14.98337141174071
STARLINK-6054           
1 56465U 23064T   26194.85265472 -.00002344  00000+0 -18880-3 0  9994
2 56465  69.9999 146.1939 0003024 263.6322  96.4493 14.98307912175131
STARLINK-6053           
1 56466U 23064U   26194.42751370 -.00000731  00000+0 -53502-4 0  9994
2 56466  69.9985 187.2901 0002769 276.6654  83.4190 14.98323920174078
STARLINK-6055           
1 56467U 23064V   26194.31462217 -.00002043  00000+0 -16340-3 0  9998
2 56467  69.9981 167.8310 0003260 271.8927  88.1858 14.98335793174557
STARLINK-5998           
1 56468U 23064W   26194.41914269 -.00000092  00000+0  96372-7 0  9997
2 56468  69.9994 187.2594 0003692 265.1771  94.8966 14.98331816174088
STARLINK-5518           
1 56469U 23064X   26194.32715476  .00000215  00000+0  25844-4 0  9996
2 56469  69.9992 167.8760 0003455 266.9529  93.1235 14.98334928174553
STARLINK-5523           
1 56470U 23064Y   26194.38555725  .00000209  00000+0  25313-4 0  9997
2 56470  69.9991 167.6780 0003208 270.4468  89.6323 14.98327831174566
STARLINK-5521           
1 56471U 23064Z   26194.31045789  .00000233  00000+0  27353-4 0  9998
2 56471  70.0000 167.8165 0002892 273.2348  86.8480 14.98335706174558
STARLINK-5038           
1 56472U 23064AA  26194.36885807 -.00000068  00000+0  20677-5 0  9997
2 56472  69.9995 167.6207 0003381 267.4317  92.6455 14.98331280174560
STARLINK-5524           
1 56474U 23064AC  26194.32297082 -.00000011  00000+0  69023-5 0  9993
2 56474  69.9994 167.8610 0003488 264.8542  95.2219 14.98334083174550
STARLINK-5541           
1 56475U 23064AD  26194.36469860  .00000287  00000+0  31864-4 0  9998
2 56475  70.0000 167.6025 0003395 268.7021  91.3749 14.98320713174563
STARLINK-5545           
1 56476U 23064AE  26194.30627195  .00000166  00000+0  21710-4 0  9995
2 56476  69.9992 167.8013 0003222 266.4226  93.6565 14.98331795174553
STARLINK-5534           
1 56477U 23064AF  26194.34815666  .00000222  00000+0  26392-4 0  9996
2 56477  70.0000 167.5462 0003245 265.6959  94.3829 14.98315486174562
STARLINK-6041           
1 56478U 23064AG  26194.36050804 -.00000040  00000+0  44662-5 0  9994
2 56478  70.0001 167.5896 0003509 268.1496  91.9261 14.98331118174565
STARLINK-6044           
1 56479U 23064AH  26194.33546906  .00001328  00000+0  11901-3 0  9992
2 56479  70.0013 167.5026 0003038 266.7508  93.3304 14.98341745174560
STARLINK-6214           
1 56480U 23064AJ  26194.85242587  .00009374  00000+0  25945-3 0  9991
2 56480  69.9912 118.0927 0004229 263.1280  96.9418 15.37269865175842
