OBJECT_NAME,OBJECT_ID,EPOCH,MEAN_MOTION,ECCENTRICITY,INCLINATION,RA_OF_ASC_NODE,ARG_OF_PERICENTER,MEAN_ANOMALY,EPHEMERIS_TYPE,CLASSIFICATION_TYPE,NORAD_CAT_ID,ELEMENT_SET_NO,REV_AT_EPOCH,BSTAR,MEAN_MOTION_DOT,MEAN_MOTION_DDOT
STARLINK-5970,2023-064C,2026-07-13T09:21:46.625472,14.98326711,.00030171,69.9995,187.5628,269.2650,90.8163,0,U,56450,999,17407,.16470783E-4,.104E-5,0
STARLINK-5985,2023-064D,2026-07-13T09:51:35.980704,14.98313964,.00028689,70.0016,187.6344,286.3120,73.7723,0,U,56451,999,17407,.75595188E-4,.809E-5,0
STARLINK-5986,2023-064E,2026-07-13T09:45:34.460640,14.98330694,.00035028,69.9994,187.6205,267.1209,92.9549,0,U,56452,999,17407,.15444672E-4,.91E-6,0
STARLINK-5935,2023-064F,2026-07-13T09:39:33.838272,14.98330652,.00035758,69.9994,187.6046,263.7494,96.3257,0,U,56453,999,17407,.8196257E-5,.5E-7,0
STARLINK-5959,2023-064G,2026-07-13T10:45:40.212576,14.98324418,.00036411,69.9993,187.3639,271.0515,89.0227,0,U,56454,999,17408,.2212113E-4,.171E-5,0
STARLINK-5987,2023-064H,2026-07-13T09:03:30.868704,14.98334683,.00036869,69.9990,187.5171,265.7030,94.3708,0,U,56455,999,17407,.28798188E-4,.251E-5,0
STARLINK-5995,2023-064J,2026-07-13T09:21:32.784192,14.98337353,.00033892,69.9995,187.5613,265.9907,94.0865,0,U,56456,999,17407,.25526484E-4,.212E-5,0
STARLINK-5994,2023-064K,2026-07-13T09:15:31.950144,14.98337176,.00033339,69.9996,187.5457,268.0451,92.0326,0,U,56457,999,17407,.29858683E-4,.263E-5,0
STARLINK-6050,2023-064L,2026-07-13T09:27:32.419008,14.98335971,.00040172,69.9990,187.5746,258.7400,101.3308,0,U,56458,999,17407,.45579022E-4,.451E-5,0
STARLINK-6048,2023-064M,2026-07-13T10:15:49.587264,14.98331322,.00035902,69.9986,187.2915,264.5955,95.4794,0,U,56459,999,17407,.7880745E-5,.1E-7,0
STARLINK-6047,2023-064N,2026-07-13T08:57:29.373696,14.98340001,.00036533,69.9989,187.5026,262.1758,97.8987,0,U,56460,999,17407,.33271054E-4,.304E-5,0
STARLINK-6037,2023-064P,2026-07-13T10:09:35.742240,14.98320151,.00037519,69.9988,187.2755,276.7333,83.3399,0,U,56461,999,17408,.53710329E-4,.548E-5,0
STARLINK-6045,2023-064Q,2026-07-13T20:16:00.791040,14.98326983,.0003437,69.9998,146.1694,267.3614,92.7151,0,U,56462,999,17513,.58569E-5,-.23E-6,0
STARLINK-6051,2023-064R,2026-07-13T09:33:32.822784,14.98336998,.0004325,69.9970,187.5807,268.9886,91.0778,0,U,56463,999,17407,-.10191726E-3,-.1309E-4,0
STARLINK-6043,2023-064S,2026-07-13T08:51:29.679264,14.98337141,.0003691,69.9989,187.4879,269.7805,90.2931,0,U,56464,999,17407,.26252679E-4,.22E-5,0
STARLINK-6054,2023-064T,2026-07-13T20:27:49.367808,14.98307912,.0003024,69.9999,146.1939,263.6322,96.4493,0,U,56465,999,17513,-.1888E-3,-.2344E-4,0
STARLINK-6053,2023-064U,2026-07-13T10:15:37.183680,14.98323920,.00027698,69.9985,187.2901,276.6654,83.4190,0,U,56466,999,17407,-.53501789E-4,-.731E-5,0
STARLINK-6055,2023-064V,2026-07-13T07:33:03.355488,14.98335793,.00032602,69.9981,167.8310,271.8927,88.1858,0,U,56467,999,17455,-.16340086E-3,-.2043E-4,0
STARLINK-5998,2023-064W,2026-07-13T10:03:33.928416,14.98331816,.00036921,69.9994,187.2594,265.1771,94.8966,0,U,56468,999,17408,.96372E-7,-.92E-6,0
STARLINK-5518,2023-064X,2026-07-13T07:51:06.171264,14.98334928,.0003455,69.9992,167.8760,266.9529,93.1235,0,U,56469,999,17455,.25844396E-4,.215E-5,0
STARLINK-5523,2023-064Y,2026-07-13T09:15:12.146400,14.98327831,.00032081,69.9991,167.6780,270.4468,89.6323,0,U,56470,999,17456,.25312673E-4,.209E-5,0
STARLINK-5521,2023-064Z,2026-07-13T07:27:03.561696,14.98335706,.00028928,70.0000,167.8165,273.2348,86.8480,0,U,56471,999,17455,.27353243E-4,.233E-5,0
STARLINK-5038,2023-064AA,2026-07-13T08:51:09.337248,14.98331280,.0003381,69.9995,167.6207,267.4317,92.6455,0,U,56472,999,17456,.2067671E-5,-.68E-6,0
STARLINK-5524,2023-064AC,2026-07-13T07:45:04.678848,14.98334083,.00034887,69.9994,167.8610,264.8542,95.2219,0,U,56474,999,17455,.6902255E-5,-.11E-6,0
STARLINK-5541,2023-064AD,2026-07-13T08:45:09.959040,14.98320713,.00033955,70.0000,167.6025,268.7021,91.3749,0,U,56475,999,17456,.31864149E-4,.287E-5,0
STARLINK-5545,2023-064AE,2026-07-13T07:21:01.896480,14.98331795,.00032225,69.9992,167.8013,266.4226,93.6565,0,U,56476,999,17455,.21709591E-4,.166E-5,0
STARLINK-5534,2023-064AF,2026-07-13T08:21:20.735424,14.98315486,.0003245,70.0000,167.5462,265.6959,94.3829,0,U,56477,999,17456,.26392283E-4,.222E-5,0
STARLINK-6041,2023-064AG,2026-07-13T08:39:07.894656,14.98331118,.00035095,70.0001,167.5896,268.1496,91.9261,0,U,56478,999,17456,.4466164E-5,-.4E-6,0
STARLINK-6044,2023-064AH,2026-07-13T08:03:04.526784,14.98341745,.00030381,70.0013,167.5026,266.7508,93.3304,0,U,56479,999,17456,.11900758E-3,.1328E-4,0
STARLINK-6214,2023-064AJ,2026-07-13T20:27:29.595168,15.37269865,.0004229,69.9912,118.0927,263.1280,96.9418,0,U,56480,999,17584,.25945E-3,.9374E-4,0
